{"type": "FeatureCollection", "features": [{"type": "Feature", "geometry": {"type": "Point", "coordinates": [-80.198148, 25.776926]}, "properties": {"zone": "40701", "internal_code": "97840701", "name": "Miami, FL", "zone_type": "OnStreet", "point_index": 0, "restricted": false, "source": "ParkMobile /api/locations"}}, {"type": "Feature", "geometry": {"type": "Point", "coordinates": [-80.197827, 25.777415]}, "properties": {"zone": "40701", "internal_code": "97840701", "name": "Miami, FL", "zone_type": "OnStreet", "point_index": 1, "restricted": false, "source": "ParkMobile /api/locations"}}, {"type": "Feature", "geometry": {"type": "Point", "coordinates": [-80.197874, 25.778375]}, "properties": {"zone": "40701", "internal_code": "97840701", "name": "Miami, FL", "zone_type": "OnStreet", "point_index": 2, "restricted": false, "source": "ParkMobile /api/locations"}}, {"type": "Feature", "geometry": {"type": "Point", "coordinates": [-80.198725, 25.77881]}, "properties": {"zone": "40701", "internal_code": "97840701", "name": "Miami, FL", "zone_type": "OnStreet", "point_index": 3, "restricted": false, "source": "ParkMobile /api/locations"}}, {"type": "Feature", "geometry": {"type": "Point", "coordinates": [-80.196584, 25.778876]}, "properties": {"zone": "40701", "internal_code": "97840701", "name": "Miami, FL", "zone_type": "OnStreet", "point_index": 4, "restricted": false, "source": "ParkMobile /api/locations"}}, {"type": "Feature", "geometry": {"type": "Point", "coordinates": [-80.197895, 25.779325]}, "properties": {"zone": "40701", "internal_code": "97840701", "name": "Miami, FL", "zone_type": "OnStreet", "point_index": 5, "restricted": false, "source": "ParkMobile /api/locations"}}, {"type": "Feature", "geometry": {"type": "Point", "coordinates": [-80.196847, 25.779338]}, "properties": {"zone": "40701", "internal_code": "97840701", "name": "Miami, FL", "zone_type": "OnStreet", "point_index": 6, "restricted": false, "source": "ParkMobile /api/locations"}}, {"type": "Feature", "geometry": {"type": "Point", "coordinates": [-80.187708, 25.771859]}, "properties": {"zone": "40703", "internal_code": "97840703", "name": "Miami, FL", "zone_type": "OnStreet", "point_index": 0, "restricted": false, "source": "ParkMobile /api/locations"}}, {"type": "Feature", "geometry": {"type": "Point", "coordinates": [-80.188241, 25.77264]}, "properties": {"zone": "40703", "internal_code": "97840703", "name": "Miami, FL", "zone_type": "OnStreet", "point_index": 1, "restricted": false, "source": "ParkMobile /api/locations"}}, {"type": "Feature", "geometry": {"type": "Point", "coordinates": [-80.190195, 25.772998]}, "properties": {"zone": "40703", "internal_code": "97840703", "name": "Miami, FL", "zone_type": "OnStreet", "point_index": 2, "restricted": false, "source": "ParkMobile /api/locations"}}, {"type": "Feature", "geometry": {"type": "Point", "coordinates": [-80.194689, 25.774584]}, "properties": {"zone": "40703", "internal_code": "97840703", "name": "Miami, FL", "zone_type": "OnStreet", "point_index": 3, "restricted": false, "source": "ParkMobile /api/locations"}}, {"type": "Feature", "geometry": {"type": "Point", "coordinates": [-80.191929, 25.774677]}, "properties": {"zone": "40703", "internal_code": "97840703", "name": "Miami, FL", "zone_type": "OnStreet", "point_index": 4, "restricted": false, "source": "ParkMobile /api/locations"}}, {"type": "Feature", "geometry": {"type": "Point", "coordinates": [-80.190279, 25.774739]}, "properties": {"zone": "40703", "internal_code": "97840703", "name": "Miami, FL", "zone_type": "OnStreet", "point_index": 5, "restricted": false, "source": "ParkMobile /api/locations"}}, {"type": "Feature", "geometry": {"type": "Point", "coordinates": [-80.188619, 25.774815]}, "properties": {"zone": "40703", "internal_code": "97840703", "name": "Miami, FL", "zone_type": "OnStreet", "point_index": 6, "restricted": false, "source": "ParkMobile /api/locations"}}, {"type": "Feature", "geometry": {"type": "Point", "coordinates": [-80.194621, 25.775079]}, "properties": {"zone": "40703", "internal_code": "97840703", "name": "Miami, FL", "zone_type": "OnStreet", "point_index": 7, "restricted": false, "source": "ParkMobile /api/locations"}}, {"type": "Feature", "geometry": {"type": "Point", "coordinates": [-80.192789, 25.775137]}, "properties": {"zone": "40703", "internal_code": "97840703", "name": "Miami, FL", "zone_type": "OnStreet", "point_index": 8, "restricted": false, "source": "ParkMobile /api/locations"}}, {"type": "Feature", "geometry": {"type": "Point", "coordinates": [-80.191137, 25.775202]}, "properties": {"zone": "40703", "internal_code": "97840703", "name": "Miami, FL", "zone_type": "OnStreet", "point_index": 9, "restricted": false, "source": "ParkMobile /api/locations"}}, {"type": "Feature", "geometry": {"type": "Point", "coordinates": [-80.189497, 25.775248]}, "properties": {"zone": "40703", "internal_code": "97840703", "name": "Miami, FL", "zone_type": "OnStreet", "point_index": 10, "restricted": false, "source": "ParkMobile /api/locations"}}, {"type": "Feature", "geometry": {"type": "Point", "coordinates": [-80.188217, 25.775298]}, "properties": {"zone": "40703", "internal_code": "97840703", "name": "Miami, FL", "zone_type": "OnStreet", "point_index": 11, "restricted": false, "source": "ParkMobile /api/locations"}}, {"type": "Feature", "geometry": {"type": "Point", "coordinates": [-80.188653, 25.77574]}, "properties": {"zone": "40703", "internal_code": "97840703", "name": "Miami, FL", "zone_type": "OnStreet", "point_index": 12, "restricted": false, "source": "ParkMobile /api/locations"}}, {"type": "Feature", "geometry": {"type": "Point", "coordinates": [-80.221259, 25.746387]}, "properties": {"zone": "40711", "internal_code": "97840711", "name": "Miami, FL", "zone_type": "OnStreet", "point_index": 0, "restricted": false, "source": "ParkMobile /api/locations"}}, {"type": "Feature", "geometry": {"type": "Point", "coordinates": [-80.232191, 25.750255]}, "properties": {"zone": "40711", "internal_code": "97840711", "name": "Miami, FL", "zone_type": "OnStreet", "point_index": 1, "restricted": false, "source": "ParkMobile /api/locations"}}, {"type": "Feature", "geometry": {"type": "Point", "coordinates": [-80.22605, 25.750403]}, "properties": {"zone": "40711", "internal_code": "97840711", "name": "Miami, FL", "zone_type": "OnStreet", "point_index": 2, "restricted": false, "source": "ParkMobile /api/locations"}}, {"type": "Feature", "geometry": {"type": "Point", "coordinates": [-80.233203, 25.750443]}, "properties": {"zone": "40711", "internal_code": "97840711", "name": "Miami, FL", "zone_type": "OnStreet", "point_index": 3, "restricted": false, "source": "ParkMobile /api/locations"}}, {"type": "Feature", "geometry": {"type": "Point", "coordinates": [-80.218387, 25.750499]}, "properties": {"zone": "40711", "internal_code": "97840711", "name": "Miami, FL", "zone_type": "OnStreet", "point_index": 4, "restricted": false, "source": "ParkMobile /api/locations"}}, {"type": "Feature", "geometry": {"type": "Point", "coordinates": [-80.231177, 25.750508]}, "properties": {"zone": "40711", "internal_code": "97840711", "name": "Miami, FL", "zone_type": "OnStreet", "point_index": 5, "restricted": false, "source": "ParkMobile /api/locations"}}, {"type": "Feature", "geometry": {"type": "Point", "coordinates": [-80.233186, 25.750569]}, "properties": {"zone": "40711", "internal_code": "97840711", "name": "Miami, FL", "zone_type": "OnStreet", "point_index": 6, "restricted": false, "source": "ParkMobile /api/locations"}}, {"type": "Feature", "geometry": {"type": "Point", "coordinates": [-80.21621, 25.750574]}, "properties": {"zone": "40711", "internal_code": "97840711", "name": "Miami, FL", "zone_type": "OnStreet", "point_index": 7, "restricted": false, "source": "ParkMobile /api/locations"}}, {"type": "Feature", "geometry": {"type": "Point", "coordinates": [-80.22907, 25.750576]}, "properties": {"zone": "40711", "internal_code": "97840711", "name": "Miami, FL", "zone_type": "OnStreet", "point_index": 8, "restricted": false, "source": "ParkMobile /api/locations"}}, {"type": "Feature", "geometry": {"type": "Point", "coordinates": [-80.231166, 25.750632]}, "properties": {"zone": "40711", "internal_code": "97840711", "name": "Miami, FL", "zone_type": "OnStreet", "point_index": 9, "restricted": false, "source": "ParkMobile /api/locations"}}, {"type": "Feature", "geometry": {"type": "Point", "coordinates": [-80.227062, 25.750647]}, "properties": {"zone": "40711", "internal_code": "97840711", "name": "Miami, FL", "zone_type": "OnStreet", "point_index": 10, "restricted": false, "source": "ParkMobile /api/locations"}}, {"type": "Feature", "geometry": {"type": "Point", "coordinates": [-80.219944, 25.750652]}, "properties": {"zone": "40711", "internal_code": "97840711", "name": "Miami, FL", "zone_type": "OnStreet", "point_index": 11, "restricted": false, "source": "ParkMobile /api/locations"}}, {"type": "Feature", "geometry": {"type": "Point", "coordinates": [-80.229061, 25.750699]}, "properties": {"zone": "40711", "internal_code": "97840711", "name": "Miami, FL", "zone_type": "OnStreet", "point_index": 12, "restricted": false, "source": "ParkMobile /api/locations"}}, {"type": "Feature", "geometry": {"type": "Point", "coordinates": [-80.225044, 25.750713]}, "properties": {"zone": "40711", "internal_code": "97840711", "name": "Miami, FL", "zone_type": "OnStreet", "point_index": 13, "restricted": false, "source": "ParkMobile /api/locations"}}, {"type": "Feature", "geometry": {"type": "Point", "coordinates": [-80.234197, 25.750767]}, "properties": {"zone": "40711", "internal_code": "97840711", "name": "Miami, FL", "zone_type": "OnStreet", "point_index": 14, "restricted": false, "source": "ParkMobile /api/locations"}}, {"type": "Feature", "geometry": {"type": "Point", "coordinates": [-80.222952, 25.750778]}, "properties": {"zone": "40711", "internal_code": "97840711", "name": "Miami, FL", "zone_type": "OnStreet", "point_index": 15, "restricted": false, "source": "ParkMobile /api/locations"}}, {"type": "Feature", "geometry": {"type": "Point", "coordinates": [-80.227074, 25.750779]}, "properties": {"zone": "40711", "internal_code": "97840711", "name": "Miami, FL", "zone_type": "OnStreet", "point_index": 16, "restricted": false, "source": "ParkMobile /api/locations"}}, {"type": "Feature", "geometry": {"type": "Point", "coordinates": [-80.232176, 25.750813]}, "properties": {"zone": "40711", "internal_code": "97840711", "name": "Miami, FL", "zone_type": "OnStreet", "point_index": 17, "restricted": false, "source": "ParkMobile /api/locations"}}, {"type": "Feature", "geometry": {"type": "Point", "coordinates": [-80.225003, 25.750838]}, "properties": {"zone": "40711", "internal_code": "97840711", "name": "Miami, FL", "zone_type": "OnStreet", "point_index": 18, "restricted": false, "source": "ParkMobile /api/locations"}}, {"type": "Feature", "geometry": {"type": "Point", "coordinates": [-80.220944, 25.750844]}, "properties": {"zone": "40711", "internal_code": "97840711", "name": "Miami, FL", "zone_type": "OnStreet", "point_index": 19, "restricted": false, "source": "ParkMobile /api/locations"}}, {"type": "Feature", "geometry": {"type": "Point", "coordinates": [-80.219201, 25.750893]}, "properties": {"zone": "40711", "internal_code": "97840711", "name": "Miami, FL", "zone_type": "OnStreet", "point_index": 20, "restricted": false, "source": "ParkMobile /api/locations"}}, {"type": "Feature", "geometry": {"type": "Point", "coordinates": [-80.22298, 25.750916]}, "properties": {"zone": "40711", "internal_code": "97840711", "name": "Miami, FL", "zone_type": "OnStreet", "point_index": 21, "restricted": false, "source": "ParkMobile /api/locations"}}, {"type": "Feature", "geometry": {"type": "Point", "coordinates": [-80.217326, 25.750936]}, "properties": {"zone": "40711", "internal_code": "97840711", "name": "Miami, FL", "zone_type": "OnStreet", "point_index": 22, "restricted": false, "source": "ParkMobile /api/locations"}}, {"type": "Feature", "geometry": {"type": "Point", "coordinates": [-80.215485, 25.750994]}, "properties": {"zone": "40711", "internal_code": "97840711", "name": "Miami, FL", "zone_type": "OnStreet", "point_index": 23, "restricted": false, "source": "ParkMobile /api/locations"}}, {"type": "Feature", "geometry": {"type": "Point", "coordinates": [-80.219194, 25.751001]}, "properties": {"zone": "40711", "internal_code": "97840711", "name": "Miami, FL", "zone_type": "OnStreet", "point_index": 24, "restricted": false, "source": "ParkMobile /api/locations"}}, {"type": "Feature", "geometry": {"type": "Point", "coordinates": [-80.21728, 25.751057]}, "properties": {"zone": "40711", "internal_code": "97840711", "name": "Miami, FL", "zone_type": "OnStreet", "point_index": 25, "restricted": false, "source": "ParkMobile /api/locations"}}, {"type": "Feature", "geometry": {"type": "Point", "coordinates": [-80.215383, 25.751112]}, "properties": {"zone": "40711", "internal_code": "97840711", "name": "Miami, FL", "zone_type": "OnStreet", "point_index": 26, "restricted": false, "source": "ParkMobile /api/locations"}}, {"type": "Feature", "geometry": {"type": "Point", "coordinates": [-80.228118, 25.75113]}, "properties": {"zone": "40711", "internal_code": "97840711", "name": "Miami, FL", "zone_type": "OnStreet", "point_index": 27, "restricted": false, "source": "ParkMobile /api/locations"}}, {"type": "Feature", "geometry": {"type": "Point", "coordinates": [-80.224024, 25.751263]}, "properties": {"zone": "40711", "internal_code": "97840711", "name": "Miami, FL", "zone_type": "OnStreet", "point_index": 28, "restricted": false, "source": "ParkMobile /api/locations"}}, {"type": "Feature", "geometry": {"type": "Point", "coordinates": [-80.219941, 25.751277]}, "properties": {"zone": "40711", "internal_code": "97840711", "name": "Miami, FL", "zone_type": "OnStreet", "point_index": 29, "restricted": false, "source": "ParkMobile /api/locations"}}, {"type": "Feature", "geometry": {"type": "Point", "coordinates": [-80.218409, 25.751336]}, "properties": {"zone": "40711", "internal_code": "97840711", "name": "Miami, FL", "zone_type": "OnStreet", "point_index": 30, "restricted": false, "source": "ParkMobile /api/locations"}}, {"type": "Feature", "geometry": {"type": "Point", "coordinates": [-80.216223, 25.751446]}, "properties": {"zone": "40711", "internal_code": "97840711", "name": "Miami, FL", "zone_type": "OnStreet", "point_index": 31, "restricted": false, "source": "ParkMobile /api/locations"}}, {"type": "Feature", "geometry": {"type": "Point", "coordinates": [-80.222468, 25.751586]}, "properties": {"zone": "40711", "internal_code": "97840711", "name": "Miami, FL", "zone_type": "OnStreet", "point_index": 32, "restricted": false, "source": "ParkMobile /api/locations"}}, {"type": "Feature", "geometry": {"type": "Point", "coordinates": [-80.224443, 25.751607]}, "properties": {"zone": "40711", "internal_code": "97840711", "name": "Miami, FL", "zone_type": "OnStreet", "point_index": 33, "restricted": false, "source": "ParkMobile /api/locations"}}, {"type": "Feature", "geometry": {"type": "Point", "coordinates": [-80.22817, 25.75253]}, "properties": {"zone": "40711", "internal_code": "97840711", "name": "Miami, FL", "zone_type": "OnStreet", "point_index": 34, "restricted": false, "source": "ParkMobile /api/locations"}}, {"type": "Feature", "geometry": {"type": "Point", "coordinates": [-80.246314, 25.747781]}, "properties": {"zone": "40712", "internal_code": "97840712", "name": "Miami, FL", "zone_type": "OnStreet", "point_index": 0, "restricted": false, "source": "ParkMobile /api/locations"}}, {"type": "Feature", "geometry": {"type": "Point", "coordinates": [-80.247902, 25.748208]}, "properties": {"zone": "40712", "internal_code": "97840712", "name": "Miami, FL", "zone_type": "OnStreet", "point_index": 1, "restricted": false, "source": "ParkMobile /api/locations"}}, {"type": "Feature", "geometry": {"type": "Point", "coordinates": [-80.245665, 25.748271]}, "properties": {"zone": "40712", "internal_code": "97840712", "name": "Miami, FL", "zone_type": "OnStreet", "point_index": 2, "restricted": false, "source": "ParkMobile /api/locations"}}, {"type": "Feature", "geometry": {"type": "Point", "coordinates": [-80.246353, 25.748728]}, "properties": {"zone": "40712", "internal_code": "97840712", "name": "Miami, FL", "zone_type": "OnStreet", "point_index": 3, "restricted": false, "source": "ParkMobile /api/locations"}}, {"type": "Feature", "geometry": {"type": "Point", "coordinates": [-80.253263, 25.749014]}, "properties": {"zone": "40712", "internal_code": "97840712", "name": "Miami, FL", "zone_type": "OnStreet", "point_index": 4, "restricted": false, "source": "ParkMobile /api/locations"}}, {"type": "Feature", "geometry": {"type": "Point", "coordinates": [-80.250758, 25.749079]}, "properties": {"zone": "40712", "internal_code": "97840712", "name": "Miami, FL", "zone_type": "OnStreet", "point_index": 5, "restricted": false, "source": "ParkMobile /api/locations"}}, {"type": "Feature", "geometry": {"type": "Point", "coordinates": [-80.247947, 25.749162]}, "properties": {"zone": "40712", "internal_code": "97840712", "name": "Miami, FL", "zone_type": "OnStreet", "point_index": 6, "restricted": false, "source": "ParkMobile /api/locations"}}, {"type": "Feature", "geometry": {"type": "Point", "coordinates": [-80.245508, 25.749223]}, "properties": {"zone": "40712", "internal_code": "97840712", "name": "Miami, FL", "zone_type": "OnStreet", "point_index": 7, "restricted": false, "source": "ParkMobile /api/locations"}}, {"type": "Feature", "geometry": {"type": "Point", "coordinates": [-80.249552, 25.74952]}, "properties": {"zone": "40712", "internal_code": "97840712", "name": "Miami, FL", "zone_type": "OnStreet", "point_index": 8, "restricted": false, "source": "ParkMobile /api/locations"}}, {"type": "Feature", "geometry": {"type": "Point", "coordinates": [-80.246382, 25.749615]}, "properties": {"zone": "40712", "internal_code": "97840712", "name": "Miami, FL", "zone_type": "OnStreet", "point_index": 9, "restricted": false, "source": "ParkMobile /api/locations"}}, {"type": "Feature", "geometry": {"type": "Point", "coordinates": [-80.243271, 25.749872]}, "properties": {"zone": "40712", "internal_code": "97840712", "name": "Miami, FL", "zone_type": "OnStreet", "point_index": 10, "restricted": false, "source": "ParkMobile /api/locations"}}, {"type": "Feature", "geometry": {"type": "Point", "coordinates": [-80.240749, 25.749879]}, "properties": {"zone": "40712", "internal_code": "97840712", "name": "Miami, FL", "zone_type": "OnStreet", "point_index": 11, "restricted": false, "source": "ParkMobile /api/locations"}}, {"type": "Feature", "geometry": {"type": "Point", "coordinates": [-80.244844, 25.750091]}, "properties": {"zone": "40712", "internal_code": "97840712", "name": "Miami, FL", "zone_type": "OnStreet", "point_index": 12, "restricted": false, "source": "ParkMobile /api/locations"}}, {"type": "Feature", "geometry": {"type": "Point", "coordinates": [-80.240706, 25.750202]}, "properties": {"zone": "40712", "internal_code": "97840712", "name": "Miami, FL", "zone_type": "OnStreet", "point_index": 13, "restricted": false, "source": "ParkMobile /api/locations"}}, {"type": "Feature", "geometry": {"type": "Point", "coordinates": [-80.245163, 25.750214]}, "properties": {"zone": "40712", "internal_code": "97840712", "name": "Miami, FL", "zone_type": "OnStreet", "point_index": 14, "restricted": false, "source": "ParkMobile /api/locations"}}, {"type": "Feature", "geometry": {"type": "Point", "coordinates": [-80.241122, 25.750308]}, "properties": {"zone": "40712", "internal_code": "97840712", "name": "Miami, FL", "zone_type": "OnStreet", "point_index": 15, "restricted": false, "source": "ParkMobile /api/locations"}}, {"type": "Feature", "geometry": {"type": "Point", "coordinates": [-80.237221, 25.750314]}, "properties": {"zone": "40712", "internal_code": "97840712", "name": "Miami, FL", "zone_type": "OnStreet", "point_index": 16, "restricted": false, "source": "ParkMobile /api/locations"}}, {"type": "Feature", "geometry": {"type": "Point", "coordinates": [-80.235179, 25.75038]}, "properties": {"zone": "40712", "internal_code": "97840712", "name": "Miami, FL", "zone_type": "OnStreet", "point_index": 17, "restricted": false, "source": "ParkMobile /api/locations"}}, {"type": "Feature", "geometry": {"type": "Point", "coordinates": [-80.2372, 25.750434]}, "properties": {"zone": "40712", "internal_code": "97840712", "name": "Miami, FL", "zone_type": "OnStreet", "point_index": 18, "restricted": false, "source": "ParkMobile /api/locations"}}, {"type": "Feature", "geometry": {"type": "Point", "coordinates": [-80.235195, 25.750507]}, "properties": {"zone": "40712", "internal_code": "97840712", "name": "Miami, FL", "zone_type": "OnStreet", "point_index": 19, "restricted": false, "source": "ParkMobile /api/locations"}}, {"type": "Feature", "geometry": {"type": "Point", "coordinates": [-80.248649, 25.750532]}, "properties": {"zone": "40712", "internal_code": "97840712", "name": "Miami, FL", "zone_type": "OnStreet", "point_index": 20, "restricted": false, "source": "ParkMobile /api/locations"}}, {"type": "Feature", "geometry": {"type": "Point", "coordinates": [-80.246425, 25.750547]}, "properties": {"zone": "40712", "internal_code": "97840712", "name": "Miami, FL", "zone_type": "OnStreet", "point_index": 21, "restricted": false, "source": "ParkMobile /api/locations"}}, {"type": "Feature", "geometry": {"type": "Point", "coordinates": [-80.245406, 25.750587]}, "properties": {"zone": "40712", "internal_code": "97840712", "name": "Miami, FL", "zone_type": "OnStreet", "point_index": 22, "restricted": false, "source": "ParkMobile /api/locations"}}, {"type": "Feature", "geometry": {"type": "Point", "coordinates": [-80.243982, 25.750621]}, "properties": {"zone": "40712", "internal_code": "97840712", "name": "Miami, FL", "zone_type": "OnStreet", "point_index": 23, "restricted": false, "source": "ParkMobile /api/locations"}}, {"type": "Feature", "geometry": {"type": "Point", "coordinates": [-80.242737, 25.750676]}, "properties": {"zone": "40712", "internal_code": "97840712", "name": "Miami, FL", "zone_type": "OnStreet", "point_index": 24, "restricted": false, "source": "ParkMobile /api/locations"}}, {"type": "Feature", "geometry": {"type": "Point", "coordinates": [-80.236226, 25.750697]}, "properties": {"zone": "40712", "internal_code": "97840712", "name": "Miami, FL", "zone_type": "OnStreet", "point_index": 25, "restricted": false, "source": "ParkMobile /api/locations"}}, {"type": "Feature", "geometry": {"type": "Point", "coordinates": [-80.24592, 25.750946]}, "properties": {"zone": "40712", "internal_code": "97840712", "name": "Miami, FL", "zone_type": "OnStreet", "point_index": 26, "restricted": false, "source": "ParkMobile /api/locations"}}, {"type": "Feature", "geometry": {"type": "Point", "coordinates": [-80.24646, 25.751263]}, "properties": {"zone": "40712", "internal_code": "97840712", "name": "Miami, FL", "zone_type": "OnStreet", "point_index": 27, "restricted": false, "source": "ParkMobile /api/locations"}}, {"type": "Feature", "geometry": {"type": "Point", "coordinates": [-80.245425, 25.751306]}, "properties": {"zone": "40712", "internal_code": "97840712", "name": "Miami, FL", "zone_type": "OnStreet", "point_index": 28, "restricted": false, "source": "ParkMobile /api/locations"}}, {"type": "Feature", "geometry": {"type": "Point", "coordinates": [-80.245942, 25.751632]}, "properties": {"zone": "40712", "internal_code": "97840712", "name": "Miami, FL", "zone_type": "OnStreet", "point_index": 29, "restricted": false, "source": "ParkMobile /api/locations"}}, {"type": "Feature", "geometry": {"type": "Point", "coordinates": [-80.25428, 25.730948]}, "properties": {"zone": "40713", "internal_code": "97840713", "name": "Miami, FL", "zone_type": "OnStreet", "point_index": 0, "restricted": false, "source": "ParkMobile /api/locations"}}, {"type": "Feature", "geometry": {"type": "Point", "coordinates": [-80.256465, 25.732227]}, "properties": {"zone": "40713", "internal_code": "97840713", "name": "Miami, FL", "zone_type": "OnStreet", "point_index": 1, "restricted": false, "source": "ParkMobile /api/locations"}}, {"type": "Feature", "geometry": {"type": "Point", "coordinates": [-80.256912, 25.732682]}, "properties": {"zone": "40713", "internal_code": "97840713", "name": "Miami, FL", "zone_type": "OnStreet", "point_index": 2, "restricted": false, "source": "ParkMobile /api/locations"}}, {"type": "Feature", "geometry": {"type": "Point", "coordinates": [-80.257437, 25.73312]}, "properties": {"zone": "40713", "internal_code": "97840713", "name": "Miami, FL", "zone_type": "OnStreet", "point_index": 3, "restricted": false, "source": "ParkMobile /api/locations"}}, {"type": "Feature", "geometry": {"type": "Point", "coordinates": [-80.25641, 25.733145]}, "properties": {"zone": "40713", "internal_code": "97840713", "name": "Miami, FL", "zone_type": "OnStreet", "point_index": 4, "restricted": false, "source": "ParkMobile /api/locations"}}, {"type": "Feature", "geometry": {"type": "Point", "coordinates": [-80.255898, 25.733262]}, "properties": {"zone": "40713", "internal_code": "97840713", "name": "Miami, FL", "zone_type": "OnStreet", "point_index": 5, "restricted": false, "source": "ParkMobile /api/locations"}}, {"type": "Feature", "geometry": {"type": "Point", "coordinates": [-80.252717, 25.733471]}, "properties": {"zone": "40713", "internal_code": "97840713", "name": "Miami, FL", "zone_type": "OnStreet", "point_index": 6, "restricted": false, "source": "ParkMobile /api/locations"}}, {"type": "Feature", "geometry": {"type": "Point", "coordinates": [-80.251933, 25.733962]}, "properties": {"zone": "40713", "internal_code": "97840713", "name": "Miami, FL", "zone_type": "OnStreet", "point_index": 7, "restricted": false, "source": "ParkMobile /api/locations"}}, {"type": "Feature", "geometry": {"type": "Point", "coordinates": [-80.256986, 25.734049]}, "properties": {"zone": "40713", "internal_code": "97840713", "name": "Miami, FL", "zone_type": "OnStreet", "point_index": 8, "restricted": false, "source": "ParkMobile /api/locations"}}, {"type": "Feature", "geometry": {"type": "Point", "coordinates": [-80.25799, 25.734053]}, "properties": {"zone": "40713", "internal_code": "97840713", "name": "Miami, FL", "zone_type": "OnStreet", "point_index": 9, "restricted": false, "source": "ParkMobile /api/locations"}}, {"type": "Feature", "geometry": {"type": "Point", "coordinates": [-80.25498, 25.734089]}, "properties": {"zone": "40713", "internal_code": "97840713", "name": "Miami, FL", "zone_type": "OnStreet", "point_index": 10, "restricted": false, "source": "ParkMobile /api/locations"}}, {"type": "Feature", "geometry": {"type": "Point", "coordinates": [-80.251121, 25.734454]}, "properties": {"zone": "40713", "internal_code": "97840713", "name": "Miami, FL", "zone_type": "OnStreet", "point_index": 11, "restricted": false, "source": "ParkMobile /api/locations"}}, {"type": "Feature", "geometry": {"type": "Point", "coordinates": [-80.25598, 25.73454]}, "properties": {"zone": "40713", "internal_code": "97840713", "name": "Miami, FL", "zone_type": "OnStreet", "point_index": 12, "restricted": false, "source": "ParkMobile /api/locations"}}, {"type": "Feature", "geometry": {"type": "Point", "coordinates": [-80.250337, 25.73488]}, "properties": {"zone": "40713", "internal_code": "97840713", "name": "Miami, FL", "zone_type": "OnStreet", "point_index": 13, "restricted": false, "source": "ParkMobile /api/locations"}}, {"type": "Feature", "geometry": {"type": "Point", "coordinates": [-80.249493, 25.734931]}, "properties": {"zone": "40713", "internal_code": "97840713", "name": "Miami, FL", "zone_type": "OnStreet", "point_index": 14, "restricted": false, "source": "ParkMobile /api/locations"}}, {"type": "Feature", "geometry": {"type": "Point", "coordinates": [-80.25704, 25.735236]}, "properties": {"zone": "40713", "internal_code": "97840713", "name": "Miami, FL", "zone_type": "OnStreet", "point_index": 15, "restricted": false, "source": "ParkMobile /api/locations"}}, {"type": "Feature", "geometry": {"type": "Point", "coordinates": [-80.25304, 25.735317]}, "properties": {"zone": "40713", "internal_code": "97840713", "name": "Miami, FL", "zone_type": "OnStreet", "point_index": 16, "restricted": false, "source": "ParkMobile /api/locations"}}, {"type": "Feature", "geometry": {"type": "Point", "coordinates": [-80.252048, 25.735402]}, "properties": {"zone": "40713", "internal_code": "97840713", "name": "Miami, FL", "zone_type": "OnStreet", "point_index": 17, "restricted": false, "source": "ParkMobile /api/locations"}}, {"type": "Feature", "geometry": {"type": "Point", "coordinates": [-80.254384, 25.740614]}, "properties": {"zone": "40713", "internal_code": "97840713", "name": "Miami, FL", "zone_type": "OnStreet", "point_index": 18, "restricted": false, "source": "ParkMobile /api/locations"}}, {"type": "Feature", "geometry": {"type": "Point", "coordinates": [-80.253611, 25.741112]}, "properties": {"zone": "40713", "internal_code": "97840713", "name": "Miami, FL", "zone_type": "OnStreet", "point_index": 19, "restricted": false, "source": "ParkMobile /api/locations"}}, {"type": "Feature", "geometry": {"type": "Point", "coordinates": [-80.253616, 25.742042]}, "properties": {"zone": "40713", "internal_code": "97840713", "name": "Miami, FL", "zone_type": "OnStreet", "point_index": 20, "restricted": false, "source": "ParkMobile /api/locations"}}, {"type": "Feature", "geometry": {"type": "Point", "coordinates": [-80.253763, 25.742997]}, "properties": {"zone": "40713", "internal_code": "97840713", "name": "Miami, FL", "zone_type": "OnStreet", "point_index": 21, "restricted": false, "source": "ParkMobile /api/locations"}}, {"type": "Feature", "geometry": {"type": "Point", "coordinates": [-80.253641, 25.743806]}, "properties": {"zone": "40713", "internal_code": "97840713", "name": "Miami, FL", "zone_type": "OnStreet", "point_index": 22, "restricted": false, "source": "ParkMobile /api/locations"}}, {"type": "Feature", "geometry": {"type": "Point", "coordinates": [-80.25361, 25.744599]}, "properties": {"zone": "40713", "internal_code": "97840713", "name": "Miami, FL", "zone_type": "OnStreet", "point_index": 23, "restricted": false, "source": "ParkMobile /api/locations"}}, {"type": "Feature", "geometry": {"type": "Point", "coordinates": [-80.253709, 25.745397]}, "properties": {"zone": "40713", "internal_code": "97840713", "name": "Miami, FL", "zone_type": "OnStreet", "point_index": 24, "restricted": false, "source": "ParkMobile /api/locations"}}, {"type": "Feature", "geometry": {"type": "Point", "coordinates": [-80.23751, 25.745498]}, "properties": {"zone": "40713", "internal_code": "97840713", "name": "Miami, FL", "zone_type": "OnStreet", "point_index": 25, "restricted": false, "source": "ParkMobile /api/locations"}}, {"type": "Feature", "geometry": {"type": "Point", "coordinates": [-80.238074, 25.745761]}, "properties": {"zone": "40713", "internal_code": "97840713", "name": "Miami, FL", "zone_type": "OnStreet", "point_index": 26, "restricted": false, "source": "ParkMobile /api/locations"}}, {"type": "Feature", "geometry": {"type": "Point", "coordinates": [-80.23882, 25.746098]}, "properties": {"zone": "40713", "internal_code": "97840713", "name": "Miami, FL", "zone_type": "OnStreet", "point_index": 27, "restricted": false, "source": "ParkMobile /api/locations"}}, {"type": "Feature", "geometry": {"type": "Point", "coordinates": [-80.253761, 25.746191]}, "properties": {"zone": "40713", "internal_code": "97840713", "name": "Miami, FL", "zone_type": "OnStreet", "point_index": 28, "restricted": false, "source": "ParkMobile /api/locations"}}, {"type": "Feature", "geometry": {"type": "Point", "coordinates": [-80.238102, 25.746582]}, "properties": {"zone": "40713", "internal_code": "97840713", "name": "Miami, FL", "zone_type": "OnStreet", "point_index": 29, "restricted": false, "source": "ParkMobile /api/locations"}}, {"type": "Feature", "geometry": {"type": "Point", "coordinates": [-80.238819, 25.746629]}, "properties": {"zone": "40713", "internal_code": "97840713", "name": "Miami, FL", "zone_type": "OnStreet", "point_index": 30, "restricted": false, "source": "ParkMobile /api/locations"}}, {"type": "Feature", "geometry": {"type": "Point", "coordinates": [-80.253701, 25.74709]}, "properties": {"zone": "40713", "internal_code": "97840713", "name": "Miami, FL", "zone_type": "OnStreet", "point_index": 31, "restricted": false, "source": "ParkMobile /api/locations"}}, {"type": "Feature", "geometry": {"type": "Point", "coordinates": [-80.238872, 25.747508]}, "properties": {"zone": "40713", "internal_code": "97840713", "name": "Miami, FL", "zone_type": "OnStreet", "point_index": 32, "restricted": false, "source": "ParkMobile /api/locations"}}, {"type": "Feature", "geometry": {"type": "Point", "coordinates": [-80.238142, 25.747785]}, "properties": {"zone": "40713", "internal_code": "97840713", "name": "Miami, FL", "zone_type": "OnStreet", "point_index": 33, "restricted": false, "source": "ParkMobile /api/locations"}}, {"type": "Feature", "geometry": {"type": "Point", "coordinates": [-80.253786, 25.748051]}, "properties": {"zone": "40713", "internal_code": "97840713", "name": "Miami, FL", "zone_type": "OnStreet", "point_index": 34, "restricted": false, "source": "ParkMobile /api/locations"}}, {"type": "Feature", "geometry": {"type": "Point", "coordinates": [-80.238887, 25.748456]}, "properties": {"zone": "40713", "internal_code": "97840713", "name": "Miami, FL", "zone_type": "OnStreet", "point_index": 35, "restricted": false, "source": "ParkMobile /api/locations"}}, {"type": "Feature", "geometry": {"type": "Point", "coordinates": [-80.237602, 25.748715]}, "properties": {"zone": "40713", "internal_code": "97840713", "name": "Miami, FL", "zone_type": "OnStreet", "point_index": 36, "restricted": false, "source": "ParkMobile /api/locations"}}, {"type": "Feature", "geometry": {"type": "Point", "coordinates": [-80.238186, 25.749005]}, "properties": {"zone": "40713", "internal_code": "97840713", "name": "Miami, FL", "zone_type": "OnStreet", "point_index": 37, "restricted": false, "source": "ParkMobile /api/locations"}}, {"type": "Feature", "geometry": {"type": "Point", "coordinates": [-80.239544, 25.749382]}, "properties": {"zone": "40713", "internal_code": "97840713", "name": "Miami, FL", "zone_type": "OnStreet", "point_index": 38, "restricted": false, "source": "ParkMobile /api/locations"}}, {"type": "Feature", "geometry": {"type": "Point", "coordinates": [-80.237175, 25.749526]}, "properties": {"zone": "40713", "internal_code": "97840713", "name": "Miami, FL", "zone_type": "OnStreet", "point_index": 39, "restricted": false, "source": "ParkMobile /api/locations"}}]}