<?xml version="1.0" encoding="UTF-8"?>
<kml xmlns="http://www.opengis.net/kml/2.2"><Document>
<name>SE 6th Street pass — parked cars</name>
<Style id="c_black"><IconStyle><color>ff1c1a1a</color><scale>1.1</scale><Icon><href>http://maps.google.com/mapfiles/kml/shapes/placemark_circle.png</href></Icon></IconStyle><LabelStyle><scale>0.7</scale></LabelStyle></Style>
<Style id="c_white"><IconStyle><color>ffe8e8e8</color><scale>1.1</scale><Icon><href>http://maps.google.com/mapfiles/kml/shapes/placemark_circle.png</href></Icon></IconStyle><LabelStyle><scale>0.7</scale></LabelStyle></Style>
<Style id="c_silver"><IconStyle><color>ffafacaa</color><scale>1.1</scale><Icon><href>http://maps.google.com/mapfiles/kml/shapes/placemark_circle.png</href></Icon></IconStyle><LabelStyle><scale>0.7</scale></LabelStyle></Style>
<Style id="c_grey"><IconStyle><color>ff73706e</color><scale>1.1</scale><Icon><href>http://maps.google.com/mapfiles/kml/shapes/placemark_circle.png</href></Icon></IconStyle><LabelStyle><scale>0.7</scale></LabelStyle></Style>
<Style id="c_red"><IconStyle><color>ff2c34c0</color><scale>1.1</scale><Icon><href>http://maps.google.com/mapfiles/kml/shapes/placemark_circle.png</href></Icon></IconStyle><LabelStyle><scale>0.7</scale></LabelStyle></Style>
<Style id="c_blue"><IconStyle><color>ffa05035</color><scale>1.1</scale><Icon><href>http://maps.google.com/mapfiles/kml/shapes/placemark_circle.png</href></Icon></IconStyle><LabelStyle><scale>0.7</scale></LabelStyle></Style>
<Style id="c_green"><IconStyle><color>ff5aa33a</color><scale>1.1</scale><Icon><href>http://maps.google.com/mapfiles/kml/shapes/placemark_circle.png</href></Icon></IconStyle><LabelStyle><scale>0.7</scale></LabelStyle></Style>
<Style id="c_tan"><IconStyle><color>ff6ea0b6</color><scale>1.1</scale><Icon><href>http://maps.google.com/mapfiles/kml/shapes/placemark_circle.png</href></Icon></IconStyle><LabelStyle><scale>0.7</scale></LabelStyle></Style>
<Style id="anchor"><IconStyle><color>ff66d1ff</color><scale>1.4</scale><Icon><href>http://maps.google.com/mapfiles/kml/shapes/star.png</href></Icon></IconStyle></Style>
<Style id="trk"><LineStyle><color>ffffd166</color><width>3</width></LineStyle></Style>
<Folder><name>Parked cars (40)</name>
<Placemark><name>SE6-000 · green car</name><description><![CDATA[id: SE6-000<br/>synthetic time: 2025-06-02T09:07:02.750000<br/>class: car<br/>colour: green<br/>range from camera: 17.0 m<br/>along-track sigma: 4.1 m<br/>cross-track sigma: 1.8 m]]></description><styleUrl>#c_green</styleUrl><Point><coordinates>-80.1919905,25.7684121,0</coordinates></Point></Placemark>
<Placemark><name>SE6-001 · grey car</name><description><![CDATA[id: SE6-001<br/>synthetic time: 2025-06-02T09:07:03.500000<br/>class: car<br/>colour: grey<br/>range from camera: 11.8 m<br/>along-track sigma: 7.6 m<br/>cross-track sigma: 1.8 m]]></description><styleUrl>#c_grey</styleUrl><Point><coordinates>-80.1920315,25.7684157,0</coordinates></Point></Placemark>
<Placemark><name>SE6-002 · grey car</name><description><![CDATA[id: SE6-002<br/>synthetic time: 2025-06-02T09:07:05.500000<br/>class: car<br/>colour: grey<br/>range from camera: 16.8 m<br/>along-track sigma: 12.8 m<br/>cross-track sigma: 1.8 m]]></description><styleUrl>#c_grey</styleUrl><Point><coordinates>-80.1919216,25.7683832,0</coordinates></Point></Placemark>
<Placemark><name>SE6-003 · tan car</name><description><![CDATA[id: SE6-003<br/>synthetic time: 2025-06-02T09:07:06.750000<br/>class: car<br/>colour: tan<br/>range from camera: 16.1 m<br/>along-track sigma: 16.0 m<br/>cross-track sigma: 1.8 m]]></description><styleUrl>#c_tan</styleUrl><Point><coordinates>-80.1918857,25.7683756,0</coordinates></Point></Placemark>
<Placemark><name>SE6-004 · green car</name><description><![CDATA[id: SE6-004<br/>synthetic time: 2025-06-02T09:07:07.500000<br/>class: car<br/>colour: green<br/>range from camera: 16.6 m<br/>along-track sigma: 18.4 m<br/>cross-track sigma: 1.8 m]]></description><styleUrl>#c_green</styleUrl><Point><coordinates>-80.1918494,25.7683679,0</coordinates></Point></Placemark>
<Placemark><name>SE6-005 · black car</name><description><![CDATA[id: SE6-005<br/>synthetic time: 2025-06-02T09:07:09.500000<br/>class: car<br/>colour: black<br/>range from camera: 6.1 m<br/>along-track sigma: 50.0 m<br/>cross-track sigma: 1.8 m]]></description><styleUrl>#c_black</styleUrl><Point><coordinates>-80.1918090,25.7683593,0</coordinates></Point></Placemark>
<Placemark><name>SE6-006 · black car</name><description><![CDATA[id: SE6-006<br/>synthetic time: 2025-06-02T09:07:10<br/>class: car<br/>colour: black<br/>range from camera: 5.4 m<br/>along-track sigma: 26.7 m<br/>cross-track sigma: 1.8 m]]></description><styleUrl>#c_black</styleUrl><Point><coordinates>-80.1917627,25.7683495,0</coordinates></Point></Placemark>
<Placemark><name>SE6-007 · grey truck</name><description><![CDATA[id: SE6-007<br/>synthetic time: 2025-06-02T09:07:10.250000<br/>class: truck<br/>colour: grey<br/>range from camera: 9.8 m<br/>along-track sigma: 18.1 m<br/>cross-track sigma: 1.8 m]]></description><styleUrl>#c_grey</styleUrl><Point><coordinates>-80.1917097,25.7683383,0</coordinates></Point></Placemark>
<Placemark><name>SE6-008 · grey truck</name><description><![CDATA[id: SE6-008<br/>synthetic time: 2025-06-02T09:07:11.750000<br/>class: truck<br/>colour: grey<br/>range from camera: 6.1 m<br/>along-track sigma: 46.9 m<br/>cross-track sigma: 1.8 m]]></description><styleUrl>#c_grey</styleUrl><Point><coordinates>-80.1916539,25.7683265,0</coordinates></Point></Placemark>
<Placemark><name>SE6-009 · green truck</name><description><![CDATA[id: SE6-009<br/>synthetic time: 2025-06-02T09:07:12.250000<br/>class: truck<br/>colour: green<br/>range from camera: 5.5 m<br/>along-track sigma: 39.1 m<br/>cross-track sigma: 1.8 m]]></description><styleUrl>#c_green</styleUrl><Point><coordinates>-80.1916017,25.7683154,0</coordinates></Point></Placemark>
<Placemark><name>SE6-010 · black car</name><description><![CDATA[id: SE6-010<br/>synthetic time: 2025-06-02T09:07:12.750000<br/>class: car<br/>colour: black<br/>range from camera: 11.7 m<br/>along-track sigma: 25.0 m<br/>cross-track sigma: 1.8 m]]></description><styleUrl>#c_black</styleUrl><Point><coordinates>-80.1915090,25.7682956,0</coordinates></Point></Placemark>
<Placemark><name>SE6-011 · grey car</name><description><![CDATA[id: SE6-011<br/>synthetic time: 2025-06-02T09:07:13.250000<br/>class: car<br/>colour: grey<br/>range from camera: 16.2 m<br/>along-track sigma: 28.3 m<br/>cross-track sigma: 1.8 m]]></description><styleUrl>#c_grey</styleUrl><Point><coordinates>-80.1914371,25.7682804,0</coordinates></Point></Placemark>
<Placemark><name>SE6-012 · black car</name><description><![CDATA[id: SE6-012<br/>synthetic time: 2025-06-02T09:07:15.250000<br/>class: car<br/>colour: black<br/>range from camera: 5.3 m<br/>along-track sigma: 26.9 m<br/>cross-track sigma: 1.8 m]]></description><styleUrl>#c_black</styleUrl><Point><coordinates>-80.1913971,25.7682719,0</coordinates></Point></Placemark>
<Placemark><name>SE6-013 · green car</name><description><![CDATA[id: SE6-013<br/>synthetic time: 2025-06-02T09:07:15.500000<br/>class: car<br/>colour: green<br/>range from camera: 11.5 m<br/>along-track sigma: 26.7 m<br/>cross-track sigma: 1.8 m]]></description><styleUrl>#c_green</styleUrl><Point><coordinates>-80.1913252,25.7682566,0</coordinates></Point></Placemark>
<Placemark><name>SE6-014 · grey truck</name><description><![CDATA[id: SE6-014<br/>synthetic time: 2025-06-02T09:07:15.500000<br/>class: truck<br/>colour: grey<br/>range from camera: 8.0 m<br/>along-track sigma: 26.7 m<br/>cross-track sigma: 1.8 m]]></description><styleUrl>#c_grey</styleUrl><Point><coordinates>-80.1913595,25.7682639,0</coordinates></Point></Placemark>
<Placemark><name>SE6-015 · blue car</name><description><![CDATA[id: SE6-015<br/>synthetic time: 2025-06-02T09:07:17.500000<br/>class: car<br/>colour: blue<br/>range from camera: 16.2 m<br/>along-track sigma: 25.3 m<br/>cross-track sigma: 1.8 m]]></description><styleUrl>#c_blue</styleUrl><Point><coordinates>-80.1911798,25.7682257,0</coordinates></Point></Placemark>
<Placemark><name>SE6-016 · black car</name><description><![CDATA[id: SE6-016<br/>synthetic time: 2025-06-02T09:07:17.500000<br/>class: car<br/>colour: black<br/>range from camera: 5.3 m<br/>along-track sigma: 25.3 m<br/>cross-track sigma: 1.8 m]]></description><styleUrl>#c_black</styleUrl><Point><coordinates>-80.1912861,25.7682483,0</coordinates></Point></Placemark>
<Placemark><name>SE6-017 · grey car</name><description><![CDATA[id: SE6-017<br/>synthetic time: 2025-06-02T09:07:17.500000<br/>class: car<br/>colour: grey<br/>range from camera: 12.5 m<br/>along-track sigma: 25.3 m<br/>cross-track sigma: 1.8 m]]></description><styleUrl>#c_grey</styleUrl><Point><coordinates>-80.1912162,25.7682335,0</coordinates></Point></Placemark>
<Placemark><name>SE6-018 · grey truck</name><description><![CDATA[id: SE6-018<br/>synthetic time: 2025-06-02T09:07:20.500000<br/>class: truck<br/>colour: grey<br/>range from camera: 5.8 m<br/>along-track sigma: 27.1 m<br/>cross-track sigma: 1.8 m]]></description><styleUrl>#c_grey</styleUrl><Point><coordinates>-80.1911305,25.7682157,0</coordinates></Point></Placemark>
<Placemark><name>SE6-019 · black car</name><description><![CDATA[id: SE6-019<br/>synthetic time: 2025-06-02T09:07:21.750000<br/>class: car<br/>colour: black<br/>range from camera: 5.2 m<br/>along-track sigma: 25.1 m<br/>cross-track sigma: 1.8 m]]></description><styleUrl>#c_black</styleUrl><Point><coordinates>-80.1910922,25.7682077,0</coordinates></Point></Placemark>
<Placemark><name>SE6-020 · black car</name><description><![CDATA[id: SE6-020<br/>synthetic time: 2025-06-02T09:07:22<br/>class: car<br/>colour: black<br/>range from camera: 10.3 m<br/>along-track sigma: 25.0 m<br/>cross-track sigma: 1.8 m]]></description><styleUrl>#c_black</styleUrl><Point><coordinates>-80.1910337,25.7681955,0</coordinates></Point></Placemark>
<Placemark><name>SE6-021 · black car</name><description><![CDATA[id: SE6-021<br/>synthetic time: 2025-06-02T09:07:24.250000<br/>class: car<br/>colour: black<br/>range from camera: 6.2 m<br/>along-track sigma: 23.9 m<br/>cross-track sigma: 1.8 m]]></description><styleUrl>#c_black</styleUrl><Point><coordinates>-80.1909820,25.7681847,0</coordinates></Point></Placemark>
<Placemark><name>SE6-022 · grey car</name><description><![CDATA[id: SE6-022<br/>synthetic time: 2025-06-02T09:07:25.250000<br/>class: car<br/>colour: grey<br/>range from camera: 6.0 m<br/>along-track sigma: 23.1 m<br/>cross-track sigma: 1.8 m]]></description><styleUrl>#c_grey</styleUrl><Point><coordinates>-80.1909453,25.7681771,0</coordinates></Point></Placemark>
<Placemark><name>SE6-023 · grey car</name><description><![CDATA[id: SE6-023<br/>synthetic time: 2025-06-02T09:07:26.250000<br/>class: car<br/>colour: grey<br/>range from camera: 6.3 m<br/>along-track sigma: 21.3 m<br/>cross-track sigma: 1.8 m]]></description><styleUrl>#c_grey</styleUrl><Point><coordinates>-80.1909059,25.7681688,0</coordinates></Point></Placemark>
<Placemark><name>SE6-024 · grey car</name><description><![CDATA[id: SE6-024<br/>synthetic time: 2025-06-02T09:07:27.750000<br/>class: car<br/>colour: grey<br/>range from camera: 5.2 m<br/>along-track sigma: 18.3 m<br/>cross-track sigma: 1.8 m]]></description><styleUrl>#c_grey</styleUrl><Point><coordinates>-80.1908709,25.7681615,0</coordinates></Point></Placemark>
<Placemark><name>SE6-025 · green car</name><description><![CDATA[id: SE6-025<br/>synthetic time: 2025-06-02T09:07:29.750000<br/>class: car<br/>colour: green<br/>range from camera: 5.1 m<br/>along-track sigma: 15.5 m<br/>cross-track sigma: 1.8 m]]></description><styleUrl>#c_green</styleUrl><Point><coordinates>-80.1908354,25.7681540,0</coordinates></Point></Placemark>
<Placemark><name>SE6-026 · black car</name><description><![CDATA[id: SE6-026<br/>synthetic time: 2025-06-02T09:07:32.750000<br/>class: car<br/>colour: black<br/>range from camera: 5.6 m<br/>along-track sigma: 14.6 m<br/>cross-track sigma: 1.8 m]]></description><styleUrl>#c_black</styleUrl><Point><coordinates>-80.1907947,25.7681450,0</coordinates></Point></Placemark>
<Placemark><name>SE6-027 · grey car</name><description><![CDATA[id: SE6-027<br/>synthetic time: 2025-06-02T09:07:35.750000<br/>class: car<br/>colour: grey<br/>range from camera: 5.8 m<br/>along-track sigma: 13.3 m<br/>cross-track sigma: 1.8 m]]></description><styleUrl>#c_grey</styleUrl><Point><coordinates>-80.1907572,25.7681370,0</coordinates></Point></Placemark>
<Placemark><name>SE6-028 · grey car</name><description><![CDATA[id: SE6-028<br/>synthetic time: 2025-06-02T09:07:42.500000<br/>class: car<br/>colour: grey<br/>range from camera: 5.4 m<br/>along-track sigma: 12.3 m<br/>cross-track sigma: 1.8 m]]></description><styleUrl>#c_grey</styleUrl><Point><coordinates>-80.1907230,25.7681296,0</coordinates></Point></Placemark>
<Placemark><name>SE6-029 · green car</name><description><![CDATA[id: SE6-029<br/>synthetic time: 2025-06-02T09:07:45.500000<br/>class: car<br/>colour: green<br/>range from camera: 6.8 m<br/>along-track sigma: 11.7 m<br/>cross-track sigma: 1.8 m]]></description><styleUrl>#c_green</styleUrl><Point><coordinates>-80.1906820,25.7681207,0</coordinates></Point></Placemark>
<Placemark><name>SE6-030 · black car</name><description><![CDATA[id: SE6-030<br/>synthetic time: 2025-06-02T09:07:51<br/>class: car<br/>colour: black<br/>range from camera: 5.6 m<br/>along-track sigma: 10.8 m<br/>cross-track sigma: 1.8 m]]></description><styleUrl>#c_black</styleUrl><Point><coordinates>-80.1906457,25.7681129,0</coordinates></Point></Placemark>
<Placemark><name>SE6-031 · grey car</name><description><![CDATA[id: SE6-031<br/>synthetic time: 2025-06-02T09:07:55<br/>class: car<br/>colour: grey<br/>range from camera: 5.5 m<br/>along-track sigma: 9.8 m<br/>cross-track sigma: 1.8 m]]></description><styleUrl>#c_grey</styleUrl><Point><coordinates>-80.1906052,25.7681041,0</coordinates></Point></Placemark>
<Placemark><name>SE6-032 · grey car</name><description><![CDATA[id: SE6-032<br/>synthetic time: 2025-06-02T09:07:57.250000<br/>class: car<br/>colour: grey<br/>range from camera: 10.8 m<br/>along-track sigma: 9.1 m<br/>cross-track sigma: 1.8 m]]></description><styleUrl>#c_grey</styleUrl><Point><coordinates>-80.1905296,25.7680878,0</coordinates></Point></Placemark>
<Placemark><name>SE6-033 · green car</name><description><![CDATA[id: SE6-033<br/>synthetic time: 2025-06-02T09:07:58<br/>class: car<br/>colour: green<br/>range from camera: 5.8 m<br/>along-track sigma: 8.9 m<br/>cross-track sigma: 1.8 m]]></description><styleUrl>#c_green</styleUrl><Point><coordinates>-80.1905697,25.7680965,0</coordinates></Point></Placemark>
<Placemark><name>SE6-034 · green car</name><description><![CDATA[id: SE6-034<br/>synthetic time: 2025-06-02T09:08:02.250000<br/>class: car<br/>colour: green<br/>range from camera: 6.1 m<br/>along-track sigma: 7.6 m<br/>cross-track sigma: 1.8 m]]></description><styleUrl>#c_green</styleUrl><Point><coordinates>-80.1904929,25.7680800,0</coordinates></Point></Placemark>
<Placemark><name>SE6-035 · black truck</name><description><![CDATA[id: SE6-035<br/>synthetic time: 2025-06-02T09:08:07.500000<br/>class: truck<br/>colour: black<br/>range from camera: 6.7 m<br/>along-track sigma: 5.1 m<br/>cross-track sigma: 1.8 m]]></description><styleUrl>#c_black</styleUrl><Point><coordinates>-80.1904266,25.7680657,0</coordinates></Point></Placemark>
<Placemark><name>SE6-036 · black car</name><description><![CDATA[id: SE6-036<br/>synthetic time: 2025-06-02T09:08:12<br/>class: car<br/>colour: black<br/>range from camera: 11.8 m<br/>along-track sigma: 4.9 m<br/>cross-track sigma: 1.8 m]]></description><styleUrl>#c_black</styleUrl><Point><coordinates>-80.1903412,25.7680473,0</coordinates></Point></Placemark>
<Placemark><name>SE6-037 · black car</name><description><![CDATA[id: SE6-037<br/>synthetic time: 2025-06-02T09:08:14.250000<br/>class: car<br/>colour: black<br/>range from camera: 5.5 m<br/>along-track sigma: 3.7 m<br/>cross-track sigma: 1.8 m]]></description><styleUrl>#c_black</styleUrl><Point><coordinates>-80.1903862,25.7680570,0</coordinates></Point></Placemark>
<Placemark><name>SE6-038 · silver car</name><description><![CDATA[id: SE6-038<br/>synthetic time: 2025-06-02T09:08:22<br/>class: car<br/>colour: silver<br/>range from camera: 8.3 m<br/>along-track sigma: 3.2 m<br/>cross-track sigma: 1.8 m]]></description><styleUrl>#c_silver</styleUrl><Point><coordinates>-80.1903044,25.7680399,0</coordinates></Point></Placemark>
<Placemark><name>SE6-039 · green car</name><description><![CDATA[id: SE6-039<br/>synthetic time: 2025-06-02T09:08:22.250000<br/>class: car<br/>colour: green<br/>range from camera: 16.8 m<br/>along-track sigma: 3.1 m<br/>cross-track sigma: 1.8 m]]></description><styleUrl>#c_green</styleUrl><Point><coordinates>-80.1902196,25.7680222,0</coordinates></Point></Placemark>
</Folder>
<Folder><name>Camera track (4 Hz)</name><Placemark><name>SE 6th St pass</name><styleUrl>#trk</styleUrl><LineString><tessellate>1</tessellate><coordinates>-80.1921793,25.7683653,0 -80.1921784,25.7683652,0 -80.1921775,25.7683651,0 -80.1921765,25.7683650,0 -80.1921755,25.7683649,0 -80.1921746,25.7683649,0 -80.1921736,25.7683648,0 -80.1921726,25.7683647,0 -80.1921714,25.7683646,0 -80.1921700,25.7683644,0 -80.1921681,25.7683643,0 -80.1921659,25.7683641,0 -80.1921631,25.7683638,0 -80.1921595,25.7683635,0 -80.1921552,25.7683631,0 -80.1921500,25.7683627,0 -80.1921437,25.7683621,0 -80.1921366,25.7683615,0 -80.1921293,25.7683609,0 -80.1921223,25.7683602,0 -80.1921155,25.7683594,0 -80.1921086,25.7683580,0 -80.1921010,25.7683563,0 -80.1920929,25.7683546,0 -80.1920847,25.7683529,0 -80.1920762,25.7683511,0 -80.1920672,25.7683492,0 -80.1920576,25.7683471,0 -80.1920478,25.7683450,0 -80.1920376,25.7683429,0 -80.1920269,25.7683406,0 -80.1920154,25.7683382,0 -80.1920035,25.7683356,0 -80.1919911,25.7683330,0 -80.1919766,25.7683299,0 -80.1919587,25.7683261,0 -80.1919379,25.7683217,0 -80.1919143,25.7683167,0 -80.1918839,25.7683102,0 -80.1918525,25.7683036,0 -80.1918311,25.7682990,0 -80.1918210,25.7682969,0 -80.1918116,25.7682949,0 -80.1918011,25.7682927,0 -80.1917890,25.7682901,0 -80.1917747,25.7682871,0 -80.1917553,25.7682829,0 -80.1917291,25.7682774,0 -80.1916981,25.7682708,0 -80.1916706,25.7682650,0 -80.1916518,25.7682610,0 -80.1916388,25.7682582,0 -80.1916256,25.7682554,0 -80.1916108,25.7682523,0 -80.1915949,25.7682489,0 -80.1915775,25.7682452,0 -80.1915583,25.7682411,0 -80.1915371,25.7682366,0 -80.1915144,25.7682318,0 -80.1914937,25.7682274,0 -80.1914776,25.7682240,0 -80.1914647,25.7682212,0 -80.1914527,25.7682187,0 -80.1914404,25.7682161,0 -80.1914273,25.7682133,0 -80.1914134,25.7682103,0 -80.1913989,25.7682073,0 -80.1913851,25.7682043,0 -80.1913728,25.7682017,0 -80.1913623,25.7681995,0 -80.1913533,25.7681976,0 -80.1913448,25.7681958,0 -80.1913360,25.7681939,0 -80.1913262,25.7681918,0 -80.1913148,25.7681894,0 -80.1913009,25.7681865,0 -80.1912833,25.7681827,0 -80.1912655,25.7681790,0 -80.1912502,25.7681758,0 -80.1912364,25.7681729,0 -80.1912234,25.7681702,0 -80.1912123,25.7681679,0 -80.1912026,25.7681658,0 -80.1911929,25.7681638,0 -80.1911835,25.7681618,0 -80.1911748,25.7681600,0 -80.1911665,25.7681583,0 -80.1911580,25.7681565,0 -80.1911494,25.7681547,0 -80.1911405,25.7681529,0 -80.1911309,25.7681509,0 -80.1911205,25.7681487,0 -80.1911097,25.7681464,0 -80.1910992,25.7681442,0 -80.1910887,25.7681420,0 -80.1910781,25.7681398,0 -80.1910674,25.7681376,0 -80.1910575,25.7681355,0 -80.1910481,25.7681335,0 -80.1910387,25.7681316,0 -80.1910291,25.7681296,0 -80.1910194,25.7681276,0 -80.1910098,25.7681255,0 -80.1910002,25.7681235,0 -80.1909912,25.7681217,0 -80.1909826,25.7681199,0 -80.1909741,25.7681181,0 -80.1909656,25.7681163,0 -80.1909576,25.7681146,0 -80.1909501,25.7681131,0 -80.1909432,25.7681116,0 -80.1909367,25.7681103,0 -80.1909308,25.7681090,0 -80.1909252,25.7681079,0 -80.1909199,25.7681068,0 -80.1909151,25.7681057,0 -80.1909110,25.7681049,0 -80.1909074,25.7681041,0 -80.1909041,25.7681035,0 -80.1909010,25.7681028,0 -80.1908979,25.7681021,0 -80.1908949,25.7681015,0 -80.1908921,25.7681009,0 -80.1908893,25.7681003,0 -80.1908865,25.7680997,0 -80.1908836,25.7680991,0 -80.1908807,25.7680984,0 -80.1908776,25.7680978,0 -80.1908745,25.7680971,0 -80.1908712,25.7680964,0 -80.1908680,25.7680957,0 -80.1908648,25.7680950,0 -80.1908617,25.7680943,0 -80.1908584,25.7680936,0 -80.1908551,25.7680929,0 -80.1908518,25.7680922,0 -80.1908486,25.7680915,0 -80.1908454,25.7680909,0 -80.1908425,25.7680902,0 -80.1908397,25.7680896,0 -80.1908371,25.7680891,0 -80.1908346,25.7680885,0 -80.1908323,25.7680880,0 -80.1908301,25.7680876,0 -80.1908281,25.7680871,0 -80.1908263,25.7680867,0 -80.1908247,25.7680864,0 -80.1908234,25.7680861,0 -80.1908222,25.7680858,0 -80.1908211,25.7680856,0 -80.1908202,25.7680854,0 -80.1908192,25.7680852,0 -80.1908182,25.7680850,0 -80.1908172,25.7680848,0 -80.1908161,25.7680845,0 -80.1908150,25.7680843,0 -80.1908138,25.7680840,0 -80.1908125,25.7680838,0 -80.1908112,25.7680835,0 -80.1908099,25.7680832,0 -80.1908087,25.7680829,0 -80.1908075,25.7680827,0 -80.1908062,25.7680824,0 -80.1908049,25.7680821,0 -80.1908034,25.7680818,0 -80.1908018,25.7680815,0 -80.1908000,25.7680811,0 -80.1907980,25.7680806,0 -80.1907960,25.7680802,0 -80.1907940,25.7680798,0 -80.1907920,25.7680794,0 -80.1907900,25.7680789,0 -80.1907878,25.7680784,0 -80.1907854,25.7680779,0 -80.1907828,25.7680774,0 -80.1907802,25.7680768,0 -80.1907778,25.7680763,0 -80.1907755,25.7680758,0 -80.1907733,25.7680753,0 -80.1907712,25.7680749,0 -80.1907689,25.7680744,0 -80.1907665,25.7680739,0 -80.1907642,25.7680734,0 -80.1907620,25.7680729,0 -80.1907600,25.7680724,0 -80.1907582,25.7680721,0 -80.1907566,25.7680717,0 -80.1907551,25.7680714,0 -80.1907537,25.7680711,0 -80.1907523,25.7680708,0 -80.1907509,25.7680705,0 -80.1907495,25.7680702,0 -80.1907477,25.7680698,0 -80.1907456,25.7680694,0 -80.1907435,25.7680689,0 -80.1907414,25.7680685,0 -80.1907389,25.7680679,0 -80.1907361,25.7680673,0 -80.1907334,25.7680667,0 -80.1907309,25.7680662,0 -80.1907281,25.7680656,0 -80.1907252,25.7680650,0 -80.1907222,25.7680643,0 -80.1907193,25.7680637,0 -80.1907165,25.7680631,0 -80.1907137,25.7680625,0 -80.1907111,25.7680619,0 -80.1907088,25.7680614,0 -80.1907063,25.7680609,0 -80.1907040,25.7680604,0 -80.1907016,25.7680599,0 -80.1906992,25.7680594,0 -80.1906966,25.7680588,0 -80.1906938,25.7680582,0 -80.1906909,25.7680576,0 -80.1906881,25.7680570,0 -80.1906854,25.7680564,0 -80.1906828,25.7680558,0 -80.1906801,25.7680552,0 -80.1906772,25.7680546,0 -80.1906744,25.7680540,0 -80.1906716,25.7680534,0 -80.1906688,25.7680528,0 -80.1906661,25.7680522,0 -80.1906634,25.7680517,0 -80.1906608,25.7680511,0 -80.1906583,25.7680506,0 -80.1906558,25.7680500,0 -80.1906533,25.7680495,0 -80.1906507,25.7680489,0 -80.1906480,25.7680483,0 -80.1906454,25.7680478,0 -80.1906426,25.7680472,0 -80.1906399,25.7680466,0 -80.1906368,25.7680459,0 -80.1906335,25.7680452,0 -80.1906299,25.7680444,0 -80.1906261,25.7680436,0 -80.1906224,25.7680428,0 -80.1906184,25.7680420,0 -80.1906139,25.7680410,0 -80.1906090,25.7680399,0 -80.1906036,25.7680388,0 -80.1905980,25.7680376,0 -80.1905921,25.7680363,0 -80.1905857,25.7680349,0 -80.1905796,25.7680336,0 -80.1905749,25.7680326,0 -80.1905713,25.7680318,0 -80.1905682,25.7680312,0 -80.1905648,25.7680304,0 -80.1905609,25.7680296,0 -80.1905563,25.7680286,0 -80.1905510,25.7680275,0 -80.1905461,25.7680264,0 -80.1905417,25.7680255,0 -80.1905379,25.7680246,0 -80.1905345,25.7680239,0 -80.1905316,25.7680233,0 -80.1905290,25.7680227,0 -80.1905267,25.7680222,0 -80.1905244,25.7680217,0 -80.1905224,25.7680213,0 -80.1905204,25.7680209,0 -80.1905185,25.7680205,0 -80.1905167,25.7680201,0 -80.1905148,25.7680197,0 -80.1905129,25.7680192,0 -80.1905109,25.7680188,0 -80.1905090,25.7680184,0 -80.1905074,25.7680181,0 -80.1905059,25.7680177,0 -80.1905041,25.7680173,0 -80.1905020,25.7680169,0 -80.1904999,25.7680164,0 -80.1904976,25.7680160,0 -80.1904954,25.7680155,0 -80.1904935,25.7680151,0 -80.1904919,25.7680147,0 -80.1904900,25.7680143,0 -80.1904881,25.7680139,0 -80.1904863,25.7680135,0 -80.1904847,25.7680132,0 -80.1904829,25.7680128,0 -80.1904811,25.7680124,0 -80.1904793,25.7680120,0 -80.1904773,25.7680116,0 -80.1904748,25.7680110,0 -80.1904723,25.7680105,0 -80.1904699,25.7680100,0 -80.1904675,25.7680095,0 -80.1904653,25.7680090,0 -80.1904633,25.7680086,0 -80.1904613,25.7680081,0 -80.1904595,25.7680077,0 -80.1904581,25.7680075,0 -80.1904569,25.7680072,0 -80.1904557,25.7680069,0 -80.1904545,25.7680067,0 -80.1904531,25.7680064,0 -80.1904516,25.7680060,0 -80.1904498,25.7680057,0 -80.1904481,25.7680053,0 -80.1904467,25.7680050,0 -80.1904454,25.7680047,0 -80.1904440,25.7680044,0 -80.1904427,25.7680041,0 -80.1904413,25.7680038,0 -80.1904400,25.7680035,0 -80.1904387,25.7680033,0 -80.1904375,25.7680030,0 -80.1904363,25.7680027,0 -80.1904350,25.7680025,0 -80.1904335,25.7680021,0 -80.1904318,25.7680018,0 -80.1904300,25.7680014,0 -80.1904281,25.7680010,0 -80.1904259,25.7680005,0 -80.1904237,25.7680000,0 -80.1904215,25.7679996,0 -80.1904192,25.7679991,0 -80.1904166,25.7679985,0 -80.1904141,25.7679980,0 -80.1904117,25.7679975,0 -80.1904094,25.7679970,0 -80.1904072,25.7679965,0 -80.1904050,25.7679960,0 -80.1904029,25.7679956,0 -80.1904008,25.7679951,0 -80.1903988,25.7679947,0 -80.1903968,25.7679943,0 -80.1903947,25.7679938,0 -80.1903925,25.7679934,0 -80.1903897,25.7679928,0 -80.1903860,25.7679920,0 -80.1903813,25.7679910,0 -80.1903749,25.7679897,0 -80.1903659,25.7679878,0 -80.1903538,25.7679853,0 -80.1903395,25.7679823,0 -80.1903275,25.7679798,0</coordinates></LineString></Placemark></Folder>
<Folder><name>Anchors</name>
<Placemark><name>SE 1st Ave (t=420)</name><styleUrl>#anchor</styleUrl><Point><coordinates>-80.1921800,25.7683650,0</coordinates></Point></Placemark>
<Placemark><name>Brickell Ave turn (t=505)</name><styleUrl>#anchor</styleUrl><Point><coordinates>-80.1903270,25.7679800,0</coordinates></Point></Placemark>
</Folder>
</Document></kml>